NORAD_CAT_ID,OBJECT_NAME,OBJECT_TYPE,EPOCH,MEAN_MOTION,ECCENTRICITY,INCLINATION,RA_OF_ASC_NODE,ARG_OF_PERICENTER,MEAN_ANOMALY,BSTAR,MEAN_MOTION_DOT,MEAN_MOTION_DDOT,TLE_LINE0,TLE_LINE1,TLE_LINE2,SEMIMAJOR_AXIS,PERIOD,APOGEE,PERIGEE,DECAYED
53932.0,STARLINK-4772,PAYLOAD,2023-11-19 13:41:45,15.08841562,0.0001441,53.2154,115.1402,87.1784,272.9373,4.984e-05,5.05e-06,0.0,0 STARLINK-4772,1 53932U 22119AY  23323.57066521  .00000505  00000-0  49840-4 0  9991,2 53932  53.2154 115.1402 0001441  87.1784 272.9373 15.08841562 65063,6917.876,95.437,540.737,538.744,0.0
53932.0,STARLINK-4772,PAYLOAD,2023-11-19 16:52:31,15.08843543,0.0001408,53.216,114.5446,92.018,268.0973,6.7567e-05,7.88e-06,0.0,0 STARLINK-4772,1 53932U 22119AY  23323.70314294  .00000788  00000-0  67567-4 0  9998,2 53932  53.2160 114.5446 0001408  92.0180 268.0973 15.08843543 65084,6917.87,95.437,540.709,538.761,0.0
53932.0,STARLINK-4772,PAYLOAD,2023-11-20 05:35:36,15.08841678,0.0001427,53.2159,112.1654,94.6826,265.4329,2.0127e-05,3.2e-07,0.0,0 STARLINK-4772,1 53932U 22119AY  23324.23306474  .00000032  00000-0  20127-4 0  9991,2 53932  53.2159 112.1654 0001427  94.6826 265.4329 15.08841678 64737,6917.875,95.437,540.727,538.753,0.0
53932.0,STARLINK-4772,PAYLOAD,2023-11-20 13:32:32,15.08839383,0.0001422,53.216,110.6785,94.5797,265.5357,3.4027e-07,-2.83e-06,0.0,0 STARLINK-4772,1 53932U 22119AY  23324.56426657 -.00000283  00000-0  34027-6 0  9998,2 53932  53.2160 110.6785 0001422  94.5797 265.5357 15.08839383 65214,6917.882,95.438,540.731,538.764,0.0
53932.0,STARLINK-4772,PAYLOAD,2023-11-20 16:43:18,15.08841025,0.0001393,53.2163,110.0843,92.5879,267.5272,1.5083e-05,-4.8e-07,0.0,0 STARLINK-4772,1 53932U 22119AY  23324.69674494 -.00000048  00000-0  15083-4 0  9994,2 53932  53.2163 110.0843 0001393  92.5879 267.5272 15.08841025 65238,6917.877,95.437,540.706,538.779,0.0
53932.0,STARLINK-4772,PAYLOAD,2023-11-21 10:12:33,15.08836445,0.0001379,53.2171,106.8144,92.6717,267.4432,1.1834e-06,-2.69e-06,0.0,0 STARLINK-4772,1 53932U 22119AY  23325.42538875 -.00000269  00000-0  11834-5 0  9994,2 53932  53.2171 106.8144 0001379  92.6717 267.4432 15.08836445 64911,6917.891,95.438,540.71,538.802,0.0
53932.0,STARLINK-4772,PAYLOAD,2023-11-21 13:23:19,15.08839168,0.0001397,53.2172,106.2198,92.8549,267.2603,1.9932e-05,2.9e-07,0.0,0 STARLINK-4772,1 53932U 22119AY  23325.55786690  .00000029  00000-0  19932-4 0  9997,2 53932  53.2172 106.2198 0001397  92.8549 267.2603 15.08839168 65363,6917.883,95.438,540.714,538.782,0.0
53932.0,STARLINK-4772,PAYLOAD,2023-11-21 16:34:05,15.08840271,0.000143,53.2177,105.6257,93.3824,266.7332,3.2651e-05,2.32e-06,0.0,0 STARLINK-4772,1 53932U 22119AY  23325.69034586  .00000232  00000-0  32651-4 0  9991,2 53932  53.2177 105.6257 0001430  93.3824 266.7332 15.08840271 65389,6917.88,95.438,540.734,538.755,0.0
53932.0,STARLINK-4772,PAYLOAD,2023-11-22 13:14:06,15.08841494,0.0001424,53.2181,101.7618,97.2761,262.8393,9.0338e-05,1.15e-05,0.0,0 STARLINK-4772,1 53932U 22119AY  23326.55146394  .00001150  00000-0  90338-4 0  9994,2 53932  53.2181 101.7618 0001424  97.2761 262.8393 15.08841494 65515,6917.876,95.437,540.726,538.756,0.0
53932.0,STARLINK-4772,PAYLOAD,2023-11-22 16:24:52,15.08846938,0.0001444,53.218,101.1669,96.9881,263.1276,0.00013477,1.858e-05,0.0,0 STARLINK-4772,1 53932U 22119AY  23326.68393929  .00001858  00000-0  13477-3 0  9999,2 53932  53.2180 101.1669 0001444  96.9881 263.1276 15.08846938 65102,6917.859,95.437,540.723,538.725,0.0
53932.0,STARLINK-4772,PAYLOAD,2023-11-23 13:04:54,15.08832665,0.0001592,53.2186,97.3012,109.0431,251.0734,6.3595e-06,-1.87e-06,0.0,0 STARLINK-4772,1 53932U 22119AY  23327.54507476 -.00000187  00000-0  63595-5 0  9992,2 53932  53.2186  97.3012 0001592 109.0431 251.0734 15.08832665 65665,6917.903,95.438,540.869,538.666,0.0
53932.0,STARLINK-4772,PAYLOAD,2023-11-23 16:15:40,15.08835416,0.0001505,53.2183,96.7034,89.8077,270.3087,2.007e-05,3.1e-07,0.0,0 STARLINK-4772,1 53932U 22119AY  23327.67755432  .00000031  00000-0  20070-4 0  9990,2 53932  53.2183  96.7034 0001505  89.8077 270.3087 15.08835416 65251,6917.894,95.438,540.801,538.718,0.0
53932.0,STARLINK-4772,PAYLOAD,2023-11-24 14:31:04,15.08845599,0.0001422,53.2179,92.5419,88.2454,271.8701,-1.575e-05,-5.39e-06,0.0,0 STARLINK-4772,1 53932U 22119AY  23328.60491265 -.00000539  00000-0 -15750-4 0  9999,2 53932  53.2179  92.5419 0001422  88.2454 271.8701 15.08845599 65822,6917.863,95.437,540.712,538.745,0.0
53932.0,STARLINK-4772,PAYLOAD,2023-11-24 16:06:27,15.08842889,0.0001482,53.2171,92.2442,80.8278,279.2882,2.5862e-05,1.24e-06,0.0,0 STARLINK-4772,1 53932U 22119AY  23328.67115174  .00000124  00000-0  25862-4 0  9991,2 53932  53.2171  92.2442 0001482  80.8278 279.2882 15.08842889 65837,6917.872,95.437,540.762,538.711,0.0
53932.0,STARLINK-4772,PAYLOAD,2023-11-25 14:21:51,15.08847948,0.000169,53.2169,88.0822,86.224,273.8945,0.00027541,4.099e-05,0.0,0 STARLINK-4772,1 53932U 22119AY  23329.59851186  .00004099  00000-0  27541-3 0  9993,2 53932  53.2169  88.0822 0001690  86.2240 273.8945 15.08847948 65975,6917.856,95.437,540.89,538.552,0.0
53932.0,STARLINK-4772,PAYLOAD,2023-11-26 07:51:04,15.08861702,0.0001613,53.2165,84.8117,68.223,291.8933,0.00041119,6.266e-05,0.0,0 STARLINK-4772,1 53932U 22119AY  23330.32714062  .00006266  00000-0  41119-3 0  9992,2 53932  53.2165  84.8117 0001613  68.2230 291.8933 15.08861702 65652,6917.814,95.436,540.795,538.563,0.0
53932.0,STARLINK-4772,PAYLOAD,2023-11-26 14:12:36,15.08880491,0.0001495,53.2172,83.6178,37.0563,323.0532,0.00072726,0.00011318,0.0,0 STARLINK-4772,1 53932U 22119AY  23330.59209228  .00011318  00000-0  72726-3 0  9996,2 53932  53.2172  83.6178 0001495  37.0563 323.0532 15.08880491 66127,6917.757,95.435,540.656,538.587,0.0
53932.0,STARLINK-4772,PAYLOAD,2023-11-26 17:23:26,15.08790121,0.0001124,53.2172,83.0259,94.4628,265.6493,-0.0010026,-0.00016187,0.0,0 STARLINK-4772,1 53932U 22119AY  23330.72460918 -.00016187  00000-0 -10026-2 0  9991,2 53932  53.2172  83.0259 0001124  94.4628 265.6493 15.08790121 65710,6918.033,95.441,540.675,539.12,0.0
53932.0,STARLINK-4772,PAYLOAD,2023-11-27 12:28:02,15.08839321,0.0001862,53.2177,79.4565,113.2754,246.8434,8.2455e-05,1.024e-05,0.0,0 STARLINK-4772,1 53932U 22119AY  23331.51947791  .00001024  00000-0  82455-4 0  9997,2 53932  53.2177  79.4565 0001862 113.2754 246.8434 15.08839321 65838,6917.882,95.438,541.036,538.459,0.0
53932.0,STARLINK-4772,PAYLOAD,2023-11-27 14:03:26,15.08840798,0.0001537,53.2176,79.1587,101.9374,258.1791,0.00015048,2.108e-05,0.0,0 STARLINK-4772,1 53932U 22119AY  23331.58571833  .00002108  00000-0  15048-3 0  9991,2 53932  53.2176  79.1587 0001537 101.9374 258.1791 15.08840798 66270,6917.878,95.438,540.806,538.68,0.0
53932.0,STARLINK-4772,PAYLOAD,2023-11-28 13:54:13,15.08844806,0.0001471,53.219,74.7035,88.4597,271.6563,0.00067938,0.00010542,0.0,0 STARLINK-4772,1 53932U 22119AY  23332.57932000  .00010542  00000-0  67938-3 0  9994,2 53932  53.2190  74.7035 0001471  88.4597 271.6563 15.08844806 66426,6917.866,95.437,540.748,538.713,0.0
53932.0,STARLINK-4772,PAYLOAD,2023-11-29 12:09:36,15.08846358,0.0001259,53.2173,70.5367,86.8493,273.2643,0.00010228,1.341e-05,0.0,0 STARLINK-4772,1 53932U 22119AY  23333.50667814  .00001341  00000-0  10228-3 0  9993,2 53932  53.2173  70.5367 0001259  86.8493 273.2643 15.08846358 66139,6917.861,95.437,540.597,538.855,0.0
53932.0,STARLINK-4772,PAYLOAD,2023-11-30 12:00:24,15.08845008,0.0001236,53.2174,66.0765,87.8008,272.3125,8.3135e-05,1.036e-05,0.0,0 STARLINK-4772,1 53932U 22119AY  23334.50027802  .00001036  00000-0  83135-4 0  9990,2 53932  53.2174  66.0765 0001236  87.8008 272.3125 15.08845008 66282,6917.865,95.437,540.585,538.875,0.0
53932.0,STARLINK-4772,PAYLOAD,2023-12-01 11:51:11,15.08839625,0.0001821,53.2183,61.6156,58.8402,301.2769,9.6077e-05,1.241e-05,0.0,0 STARLINK-4772,1 53932U 22119AY  23335.49388606  .00001241  00000-0  96077-4 0  9998,2 53932  53.2183  61.6156 0001821  58.8402 301.2769 15.08839625 66434,6917.882,95.438,541.006,538.487,0.0
53932.0,STARLINK-4772,PAYLOAD,2023-12-01 13:26:34,15.0884427,0.0001995,53.219,61.3187,59.1343,300.9845,0.00014662,2.046e-05,0.0,0 STARLINK-4772,1 53932U 22119AY  23335.56012351  .00002046  00000-0  14662-3 0  9990,2 53932  53.2190  61.3187 0001995  59.1343 300.9845 15.08844270 66874,6917.867,95.437,541.112,538.352,0.0
53932.0,STARLINK-4772,PAYLOAD,2023-12-02 11:41:59,15.08821872,0.0002425,53.216,57.1638,37.3288,322.7873,-0.00028895,-4.882e-05,0.0,0 STARLINK-4772,1 53932U 22119AY  23336.48748853 -.00004882  00000-0 -28895-3 0  9990,2 53932  53.2160  57.1638 0002425  37.3288 322.7873 15.08821872 66584,6917.936,95.439,541.478,538.123,0.0
53932.0,STARLINK-4772,PAYLOAD,2023-12-02 13:17:21,15.08821052,0.0001393,53.2161,56.8618,68.4133,291.7008,-0.00035402,-5.915e-05,0.0,0 STARLINK-4772,1 53932U 22119AY  23336.55372486 -.00005915  00000-0 -35402-3 0  9993,2 53932  53.2161  56.8618 0001393  68.4133 291.7008 15.08821052 67021,6917.938,95.439,540.767,538.84,0.0
53932.0,STARLINK-4772,PAYLOAD,2023-12-03 11:32:47,15.08819573,0.0001322,53.2165,52.6974,83.8631,276.2512,-0.00022047,-3.793e-05,0.0,0 STARLINK-4772,1 53932U 22119AY  23337.48110482 -.00003793  00000-0 -22047-3 0  9995,2 53932  53.2165  52.6974 0001322  83.8631 276.2512 15.08819573 67168,6917.943,95.439,540.722,538.893,0.0
53932.0,STARLINK-4772,PAYLOAD,2023-12-03 14:43:33,15.08824359,0.0001308,53.2169,52.1,93.2794,266.8348,-0.00011628,-2.137e-05,0.0,0 STARLINK-4772,1 53932U 22119AY  23337.61358360 -.00002137  00000-0 -11628-3 0  9993,2 53932  53.2169  52.1000 0001308  93.2794 266.8348 15.08824359 66750,6917.928,95.439,540.698,538.888,0.0
53932.0,STARLINK-4772,PAYLOAD,2023-12-04 11:23:33,15.08844707,0.0001416,53.2175,48.2379,85.4311,274.6843,0.00042954,6.556e-05,0.0,0 STARLINK-4772,1 53932U 22119AY  23338.47469840  .00006556  00000-0  42954-3 0  9997,2 53932  53.2175  48.2379 0001416  85.4311 274.6843 15.08844707 66880,6917.866,95.437,540.711,538.751,0.0
